{
  "norad_id": 43058,
  "name": "GSAT0218 (GALILEO 22)",
  "history": [
    {
      "epoch": "2026-03-26T10:52:17.891904Z",
      "apogee_km": 23228.856485265133,
      "perigee_km": 23215.39132657903,
      "latitude_deg": 4.4983306690555967e-05,
      "longitude_deg": -123.21215381609976,
      "height_km": 23220.163761674616,
      "semi_major_axis_km": 29600.26090592208,
      "eccentricity": 0.00022745,
      "inclination_deg": 55.0993,
      "raan_deg": 223.7765,
      "arg_perigee_deg": 289.2872,
      "mean_anomaly_deg": 70.6427,
      "mean_motion_rev_day": 1.70474511
    }
  ]
}